[{"OBJECT_NAME":"ONEWEB-0040","OBJECT_ID":"2020-008S","EPOCH":"2026-03-09T22:29:59.694144","MEAN_MOTION":13.10375918,"ECCENTRICITY":0.00017991,"INCLINATION":87.8774,"RA_OF_ASC_NODE":56.041,"ARG_OF_PERICENTER":89.8763,"MEAN_ANOMALY":270.2571,"EPHEMERIS_TYPE":0,"CLASSIFICATION_TYPE":"U","NORAD_CAT_ID":45147,"ELEMENT_SET_NO":999,"REV_AT_EPOCH":29486,"BSTAR":0.0010964113,"MEAN_MOTION_DOT":3.95e-6,"MEAN_MOTION_DDOT":0},{"OBJECT_NAME":"DELTA 1 DEB","OBJECT_ID":"1975-052G","EPOCH":"2026-03-08T13:56:40.934976","MEAN_MOTION":13.0252387,"ECCENTRICITY":0.02440485,"INCLINATION":99.5696,"RA_OF_ASC_NODE":107.9836,"ARG_OF_PERICENTER":184.4605,"MEAN_ANOMALY":330.6132,"EPHEMERIS_TYPE":0,"CLASSIFICATION_TYPE":"U","NORAD_CAT_ID":21271,"ELEMENT_SET_NO":999,"REV_AT_EPOCH":65471,"BSTAR":0.0012764125,"MEAN_MOTION_DOT":4.21e-6,"MEAN_MOTION_DDOT":0}]
